PHASE 3B (AO-10)        
1 14129U 83058B   21021.82556569  .00000147  00000-0  00000-0 0  9995
2 14129  25.7887 179.0897 6065622 303.3308  12.4702  2.05866858254908
UOSAT 2 (UO-11)         
1 14781U 84021B   21025.51334965  .00000130  00000-0  22015-4 0  9990
2 14781  97.5900  32.4197 0008276 181.4383 178.6809 14.83240403964748
LUSAT (LO-19)           
1 20442U 90005G   21025.62649693  .00000009  00000-0  19744-4 0  9999
2 20442  98.7227 339.9455 0011022 217.2017 142.8404 14.32974451620374
EYESAT A (AO-27)        
1 22825U 93061C   21025.51158372  .00000006  00000-0  20142-4 0  9999
2 22825  98.9241  39.5636 0009481  91.0167 269.2101 14.30104372425559
ITAMSAT (IO-26)         
1 22826U 93061D   21025.79555166  .00000006  00000-0  20118-4 0  9995
2 22826  98.9182  39.7774 0009982  79.2285 281.0020 14.30441965425839
RADIO ROSTO (RS-15)     
1 23439U 94085A   21025.91194130 -.00000037  00000-0  15882-3 0  9993
2 23439  64.8162 246.4934 0156472   0.8868 359.2306 11.27570216 74266
JAS-2 (FO-29)           
1 24278U 96046B   21025.51690698 -.00000042  00000-0 -78471-5 0  9992
2 24278  98.5837 112.3441 0350741 159.7618 201.7831 13.53102197206910
TECHSAT 1B (GO-32)      
1 25397U 98043D   21025.80991177 -.00000022  00000-0  98398-5 0  9999
2 25397  98.7554 331.8820 0002144 114.2731 245.8671 14.23699929171197
ISS (ZARYA)             
1 25544U 98067A   21025.90921851  .00001562  00000-0  36618-4 0  9997
2 25544  51.6463 326.4407 0002297 291.4586 177.3150 15.48889292266541
PCSAT (NO-44)           
1 26931U 01043C   21025.69928205 -.00000010  00000-0  27967-4 0  9997
2 26931  67.0516 288.8534 0007404 271.1841  88.8412 14.30603907  8827
SAUDISAT 1C (SO-50)     
1 27607U 02058C   21025.78744757  .00000041  00000-0  26274-4 0  9996
2 27607  64.5556  54.5867 0029403  84.0522 276.3931 14.75705406973503
CUTE-1 (CO-55)          
1 27844U 03031E   21025.73932031  .00000080  00000-0  55788-4 0  9995
2 27844  98.6817  36.1060 0010700 128.5592 231.6546 14.22284185911692
CUBESAT XI-IV (CO-57)   
1 27848U 03031J   21025.76058502  .00000056  00000-0  45100-4 0  9994
2 27848  98.6878  36.6951 0010432 140.3872 219.8070 14.21864588911535
MOZHAYETS 4 (RS-22)     
1 27939U 03042A   21025.82559589  .00000099  00000-0  26479-4 0  9990
2 27939  98.1169 164.1191 0013056  17.1150 343.0491 14.66936469926611
CUBESAT XI-V            
1 28895U 05043F   21025.84350865  .00000158  00000-0  39261-4 0  9992
2 28895  98.0364 162.3950 0015585 301.7794  58.1890 14.63857294813142
CUTE-1.7+APD II (CO-65) 
1 32785U 08021C   21025.49959154  .00000300  00000-0  37759-4 0  9990
2 32785  97.5955  10.0334 0014342 114.3322 245.9395 14.88617463690907
DELFI-C3 (DO-64)        
1 32789U 08021G   21025.81912448  .00001696  00000-0  11279-3 0  9992
2 32789  97.3940  66.5975 0010330 272.7466  87.2580 15.08424653695325
SEEDS II (CO-66)        
1 32791U 08021J   21025.51584113  .00000572  00000-0  62702-4 0  9996
2 32791  97.5582  16.0840 0014742  83.2676 277.0220 14.91255782691559
YUBILEINY (RS-30)       
1 32953U 08025A   21025.77251408  .00000028  00000-0  12906-3 0  9992
2 32953  82.5053 139.6743 0018489 287.9395  71.9676 12.43099538575257
KKS-1 (KISEKI)          
1 33499U 09002H   21025.87132485  .00000140  00000-0  28398-4 0  9996
2 33499  98.2887 252.4808 0009994 130.7257 229.4821 14.75610307645385
SWISSCUBE               
1 35932U 09051B   21025.80799152  .00000170  00000-0  49361-4 0  9993
2 35932  98.6068 221.2718 0007933 158.1852 201.9684 14.56480287602199
BEESAT-1                
1 35933U 09051C   21025.77957956  .00000148  00000-0  44224-4 0  9996
2 35933  98.6046 223.0972 0005920 168.1971 191.9366 14.56545159602268
ITUPSAT1                
1 35935U 09051E   21025.49283667  .00000110  00000-0  36282-4 0  9992
2 35935  98.6151 222.9665 0008196 172.2743 187.8582 14.55682834601977
XIWANG-1 (HOPE-1)       
1 36122U 09072B   21025.71787102 -.00000033  00000-0  24331-4 0  9999
2 36122 100.1151  12.4022 0008149  72.1639 288.0363 13.16358653534111
JUGNU                   
1 37839U 11058B   21025.65621742  .00000315  00000-0  26172-4 0  9999
2 37839  19.9630  15.2186 0018718 318.4993 197.2073 14.12701423480247
SRMSAT                  
1 37841U 11058D   21025.84103963  .00000279  00000-0  81334-5 0  9994
2 37841  19.9727  83.0220 0011839 166.0714 349.9244 14.10683528479566
M-CUBED & EXP-1 PRIME   
1 37855U 11061F   21025.84858519  .00002333  00000-0  11983-3 0  9991
2 37855 101.7263 235.2950 0168526 134.6630 226.8461 15.07127875504693
STRAND-1                
1 39090U 13009E   21025.83279379  .00000068  00000-0  38976-4 0  9993
2 39090  98.4365 231.2970 0008919 350.2607   9.8404 14.35165591414589
SOMP                    
1 39134U 13015E   21025.68706249  .00001987  00000-0  95684-4 0  9993
2 39134  64.8623 276.5052 0011571 218.9887 141.0408 15.21912396429480
BEESAT-3                
1 39135U 13015F   21025.78674467  .00001451  00000-0  78683-4 0  9997
2 39135  64.8674 303.0762 0015915 206.1053 153.9273 15.18857515428973
BEESAT-2                
1 39136U 13015G   21025.79161729  .00001713  00000-0  92270-4 0  9990
2 39136  64.8744 308.8734 0028781 262.6262  97.1593 15.18237290428851
ZACUBE-1 (TSHEPISOSAT)  
1 39417U 13066B   21025.73346275  .00000337  00000-0  48418-4 0  9999
2 39417  97.5801  17.5689 0057203 269.1153  90.3506 14.81415603387943
GOMX-1                  
1 39430U 13066Q   21025.80201599  .00000122  00000-0  31203-4 0  9997
2 39430  97.8090 317.1062 0149985 203.7722 155.6507 14.59524823382233
CUBEBUG-2 (LO-74)       
1 39440U 13066AA  21025.56579054  .00000411  00000-0  63819-4 0  9994
2 39440  97.6580   2.1237 0079509 340.2252  19.5881 14.76148342385345
FUNCUBE-1 (AO-73)       
1 39444U 13066AE  21025.93891332  .00000391  00000-0  54113-4 0  9999
2 39444  97.5722  20.0926 0056296 259.2937 100.1935 14.82301076386325
UWE-3                   
1 39446U 13066AG  21025.51249022  .00000302  00000-0  46630-4 0  9995
2 39446  97.6207   9.1402 0068610 306.2441  53.2443 14.78683163385381
SPROUT                  
1 39770U 14029E   21025.74234577  .00000790  00000-0  91786-4 0  9992
2 39770  97.9050 137.2840 0008101 322.6760  37.3923 14.88141445362119
UNISAT-6                
1 40012U 14033C   21025.83505555  .00000251  00000-0  44449-4 0  9991
2 40012  97.6866 235.6395 0058270   2.9272 357.2267 14.74231559355183
DUCHIFAT-1              
1 40021U 14033M   21025.81562596  .00000579  00000-0  64219-4 0  9997
2 40021  97.9611 324.6248 0011398 276.1580  83.8340 14.91156795359025
QB50P1                  
1 40025U 14033R   21025.78921623  .00000405  00000-0  48666-4 0  9993
2 40025  97.9268 316.1795 0011090 290.9170  69.0860 14.89313250358185
NUDT-PHONESAT           
1 40900U 15049B   21025.94655150  .00002882  00000-0  11702-3 0  9991
2 40900  97.4263  41.0613 0010578 283.7846 163.5229 15.25362818297096
ZDPS 2A                 
1 40901U 15049C   21025.86071483  .00001610  00000-0  80201-4 0  9993
2 40901  97.4636  34.7164 0012141 325.3854 118.8305 15.18962262296325
ZDPS 2B                 
1 40902U 15049D   21025.84242825  .00001579  00000-0  78672-4 0  9995
2 40902  97.4653  31.9839 0012130 322.4339 121.2539 15.18977877296298
XW-2A                   
1 40903U 15049E   21025.86597150  .00002532  00000-0  56829-4 0  9992
2 40903  97.2591  80.7111 0013093 166.6450 308.6520 15.44264527300785
KAITUO 1A               
1 40904U 15049F   21025.85464964  .00000683  00000-0  38993-4 0  9995
2 40904  97.4836  29.6277 0013868 338.9262 116.4796 15.15976146295935
2015-049G               
1 40905U 15049G   21025.84357455  .00000623  00000-0  37046-4 0  9993
2 40905  97.4949  26.7347 0014760 336.9729 108.0241 15.14803460295743
XW-2C                   
1 40906U 15049H   21025.84696059  .00000866  00000-0  47910-4 0  9990
2 40906  97.4831  30.0368 0013749 328.4263 115.7168 15.16444523295959
XW-2D                   
1 40907U 15049J   21025.86965185  .00001020  00000-0  55393-4 0  9999
2 40907  97.4820  29.8108 0013036 325.2775 119.0819 15.16726158295988
LILACSAT-2              
1 40908U 15049K   21025.82037293  .00000246  00000-0  17036-4 0  9997
2 40908  97.5003  27.8090 0015088 338.7573  98.8873 15.14261794295640
XW-2F                   
1 40910U 15049M   21025.99932659  .00001459  00000-0  73838-4 0  9997
2 40910  97.4718  32.8338 0013073 310.7824 101.5177 15.18547282296101
XW-2B                   
1 40911U 15049N   21025.98626586  .00001075  00000-0  58317-4 0  9995
2 40911  97.4829  30.6206 0012787 325.4892  61.6714 15.16647824295893
KAITUO 1B               
1 40912U 15049P   21025.79269266  .00001488  00000-0  70126-4 0  9993
2 40912  97.4474  36.9517 0012913 283.3717 249.8443 15.21018537296500
TIANWANG 1C (TW-1C)     
1 40926U 15051B   21025.87731446  .00186218  14670-4  58759-3 0  9998
2 40926  97.0497  87.1998 0001853 302.8227 173.5998 15.91325987302009
TIANWANG 1A (TW-1A)     
1 40928U 15051D   21025.84177083  .00003907  00000-0  86389-4 0  9990
2 40928  97.0919  54.2103 0011857  94.9368 257.3061 15.44338721299660
LAPAN-A2                
1 40931U 15052B   21025.08775407  .00000690  00000-0  69845-5 0  9990
2 40931   5.9968 194.8523 0012462 173.6811 186.3523 14.76659863288078
E-ST@R-II               
1 41459U 16025D   21025.86019648  .00002805  00000-0  14122-3 0  9997
2 41459  98.1219 153.8390 0162625 182.5387 177.5035 15.07323223260936
AAUSAT 4                
1 41460U 16025E   21025.83223511  .00005253  00000-0  25060-3 0  9995
2 41460  98.1179 157.0070 0150386 168.8342 191.6331 15.10057022261182
NUSAT-1 (FRESCO)        
1 41557U 16033B   21025.87555847  .00001591  00000-0  59396-4 0  9996
2 41557  97.3966 120.6914 0013779  27.4581  82.8700 15.28801465259743
BEESAT-4                
1 41619U 16040W   21025.89284998  .00002354  00000-0  97448-4 0  9999
2 41619  97.2911  85.8802 0012422 112.5016 247.7538 15.24832365243284
